COMMENT,ORIGINATOR,NORAD_CAT_ID,OBJECT_NAME,OBJECT_TYPE,CLASSIFICATION_TYPE,INTLDES,EPOCH,EPOCH_MICROSECONDS,MEAN_MOTION,ECCENTRICITY,INCLINATION,RA_OF_ASC_NODE,ARG_OF_PERICENTER,MEAN_ANOMALY,EPHEMERIS_TYPE,ELEMENT_SET_NO,REV_AT_EPOCH,BSTAR,MEAN_MOTION_DOT,MEAN_MOTION_DDOT,FILE,TLE_LINE0,TLE_LINE1,TLE_LINE2,OBJECT_ID,OBJECT_NUMBER,SEMIMAJOR_AXIS,PERIOD,APOGEE,PERIGEE,DECAYED
"GENERATED VIA SPACETRACK.ORG API","18 SPCS","48899","SPACEBEE-110","PAYLOAD","U","21059W","2023-09-12 08:49:43","961952","15.39524679","0.0005592","97.6051","35.8664","309.359","50.7159","0","999","12281","0.0013472","0.0005316","0","4004382","0 SPACEBEE-110","1 48899U 21059W   23255.36786993  .00053160  00000-0  13472-2 0  9997","2 48899  97.6051  35.8664 0005592 309.3590  50.7159 15.39524679122812","2021-059W","48899","6825.651","93.535","451.333","443.699","0"
"GENERATED VIA SPACETRACK.ORG API","18 SPCS","48899","SPACEBEE-110","PAYLOAD","U","21059W","2023-09-12 08:49:43","961952","15.39524679","0.0005592","97.6051","35.8664","309.359","50.7159","0","999","12281","0.0013472","0.0005316","0","4004425","0 SPACEBEE-110","1 48899U 21059W   23255.36786993  .00053160  00000-0  13472-2 0  9997","2 48899  97.6051  35.8664 0005592 309.3590  50.7159 15.39524679122812","2021-059W","48899","6825.651","93.535","451.333","443.699","0"
"GENERATED VIA SPACETRACK.ORG API","18 SPCS","48899","SPACEBEE-110","PAYLOAD","U","21059W","2023-09-12 21:18:29","1024","15.39597675","0.0005602","97.6052","36.4063","307.4378","52.6357","0","999","12289","0.001787","0.00070874","0","4004701","0 SPACEBEE-110","1 48899U 21059W   23255.88783566  .00070874  00000-0  17870-2 0  9994","2 48899  97.6052  36.4063 0005602 307.4378  52.6357 15.39597675122893","2021-059W","48899","6825.435","93.531","451.124","443.477","0"
"GENERATED VIA SPACETRACK.ORG API","18 SPCS","48899","SPACEBEE-110","PAYLOAD","U","21059W","2023-09-12 22:52:04","508544","15.39605213","0.0005661","97.6052","36.4739","307.4692","52.6038","0","999","12290","0.0018836","0.00074767","0","4005004","0 SPACEBEE-110","1 48899U 21059W   23255.95282996  .00074767  00000-0  18836-2 0  9991","2 48899  97.6052  36.4739 0005661 307.4692  52.6038 15.39605213122903","2021-059W","48899","6825.413","93.530","451.142","443.414","0"
"GENERATED VIA SPACETRACK.ORG API","18 SPCS","48899","SPACEBEE-110","PAYLOAD","U","21059W","2023-09-13 08:13:36","698304","15.39662212","0.0005584","97.6054","36.8786","305.6487","54.4238","0","999","12296","0.0018286","0.00072697","0","4005353","0 SPACEBEE-110","1 48899U 21059W   23256.34278586  .00072697  00000-0  18286-2 0  9994","2 48899  97.6054  36.8786 0005584 305.6487  54.4238 15.39662212122967","2021-059W","48899","6825.244","93.527","450.921","443.298","0"
"GENERATED VIA SPACETRACK.ORG API","18 SPCS","48899","SPACEBEE-110","PAYLOAD","U","21059W","2023-09-13 20:42:17","889984","15.39720636","0.0005599","97.6056","37.4191","304.6835","55.3882","0","999","12304","0.0014923","0.00059322","0","4005648","0 SPACEBEE-110","1 48899U 21059W   23256.86270706  .00059322  00000-0  14923-2 0  9991","2 48899  97.6056  37.4191 0005599 304.6835  55.3882 15.39720636123048","2021-059W","48899","6825.072","93.523","450.758","443.115","0"
"GENERATED VIA SPACETRACK.ORG API","18 SPCS","48899","SPACEBEE-110","PAYLOAD","U","21059W","2023-09-13 20:42:17","889984","15.39720636","0.0005599","97.6056","37.4191","304.6835","55.3882","0","999","12304","0.0014923","0.00059322","0","4005906","0 SPACEBEE-110","1 48899U 21059W   23256.86270706  .00059322  00000-0  14923-2 0  9991","2 48899  97.6056  37.4191 0005599 304.6835  55.3882 15.39720636123048","2021-059W","48899","6825.072","93.523","450.758","443.115","0"
"GENERATED VIA SPACETRACK.ORG API","18 SPCS","48899","SPACEBEE-110","PAYLOAD","U","21059W","2023-09-14 09:10:57","285408","15.39782854","0.0005581","97.6058","37.9587","301.7977","58.2724","0","999","12312","0.0014228","0.0005665","0","4006374","0 SPACEBEE-110","1 48899U 21059W   23257.38260747  .00056650  00000-0  14228-2 0  9992","2 48899  97.6058  37.9587 0005581 301.7977  58.2724 15.39782854123126","2021-059W","48899","6824.888","93.520","450.562","442.944","0"
"GENERATED VIA SPACETRACK.ORG API","18 SPCS","48899","SPACEBEE-110","PAYLOAD","U","21059W","2023-09-14 21:39:35","91936","15.39831307","0.0005703","97.6059","38.4992","301.1849","58.8836","0","999","12320","0.0012128","0.00048302","0","4006841","0 SPACEBEE-110","1 48899U 21059W   23257.90248949  .00048302  00000-0  12128-2 0  9992","2 48899  97.6059  38.4992 0005703 301.1849  58.8836 15.39831307123208","2021-059W","48899","6824.745","93.517","450.502","442.718","0"
"GENERATED VIA SPACETRACK.ORG API","18 SPCS","48899","SPACEBEE-110","PAYLOAD","U","21059W","2023-09-15 08:34:36","829344","15.3988706","0.0005739","97.6061","38.9716","299.4394","60.6278","0","999","12327","0.0015192","0.00060735","0","4007181","0 SPACEBEE-110","1 48899U 21059W   23258.35737071  .00060735  00000-0  15192-2 0  9999","2 48899  97.6061  38.9716 0005739 299.4394  60.6278 15.39887060123278","2021-059W","48899","6824.580","93.513","450.362","442.528","0"
"GENERATED VIA SPACETRACK.ORG API","18 SPCS","48899","SPACEBEE-110","PAYLOAD","U","21059W","2023-09-15 08:34:36","829344","15.3988706","0.0005739","97.6061","38.9716","299.4394","60.6278","0","999","12327","0.0015192","0.00060735","0","4007228","0 SPACEBEE-110","1 48899U 21059W   23258.35737071  .00060735  00000-0  15192-2 0  9999","2 48899  97.6061  38.9716 0005739 299.4394  60.6278 15.39887060123278","2021-059W","48899","6824.580","93.513","450.362","442.528","0"
"GENERATED VIA SPACETRACK.ORG API","18 SPCS","48899","SPACEBEE-110","PAYLOAD","U","21059W","2023-09-15 22:36:45","872640","15.39943224","0.0005819","97.6065","39.5796","298.2971","61.7686","0","999","12336","0.0012805","0.00051211","0","4007765","0 SPACEBEE-110","1 48899U 21059W   23258.94219760  .00051211  00000-0  12805-2 0  9991","2 48899  97.6065  39.5796 0005819 298.2971  61.7686 15.39943224123364","2021-059W","48899","6824.414","93.510","450.250","442.308","0"
"GENERATED VIA SPACETRACK.ORG API","18 SPCS","48899","SPACEBEE-110","PAYLOAD","U","21059W","2023-09-16 09:31:44","826240","15.39994762","0.0005663","97.6068","40.0521","295.8449","64.2211","0","999","12343","0.0012983","0.00052016","0","4008138","0 SPACEBEE-110","1 48899U 21059W   23259.39704660  .00052016  00000-0  12983-2 0  9990","2 48899  97.6068  40.0521 0005663 295.8449  64.2211 15.39994762123433","2021-059W","48899","6824.262","93.507","449.991","442.262","0"
"GENERATED VIA SPACETRACK.ORG API","18 SPCS","48899","SPACEBEE-110","PAYLOAD","U","21059W","2023-09-17 08:55:13","135584","15.40091015","0.0005778","97.6072","41.0652","292.673","67.3904","0","999","12358","0.0015643","0.0006298","0","4008873","0 SPACEBEE-110","1 48899U 21059W   23260.37167981  .00062980  00000-0  15643-2 0  9996","2 48899  97.6072  41.0652 0005778 292.6730  67.3904 15.40091015123589","2021-059W","48899","6823.977","93.501","449.785","441.900","0"
"GENERATED VIA SPACETRACK.ORG API","18 SPCS","48899","SPACEBEE-110","PAYLOAD","U","21059W","2023-09-17 08:55:13","135584","15.40091015","0.0005778","97.6072","41.0652","292.673","67.3904","0","999","12358","0.0015643","0.0006298","0","4008915","0 SPACEBEE-110","1 48899U 21059W   23260.37167981  .00062980  00000-0  15643-2 0  9996","2 48899  97.6072  41.0652 0005778 292.6730  67.3904 15.40091015123589","2021-059W","48899","6823.977","93.501","449.785","441.900","0"
"GENERATED VIA SPACETRACK.ORG API","18 SPCS","48899","SPACEBEE-110","PAYLOAD","U","21059W","2023-09-18 08:18:35","443584","15.40204389","0.0005773","97.6073","42.0783","288.8444","71.2175","0","999","12373","0.0015264","0.00061671","0","4009863","0 SPACEBEE-110","1 48899U 21059W   23261.34624356  .00061671  00000-0  15264-2 0  9993","2 48899  97.6073  42.0783 0005773 288.8444  71.2175 15.40204389123731","2021-059W","48899","6823.643","93.494","449.447","441.568","0"
"GENERATED VIA SPACETRACK.ORG API","18 SPCS","48899","SPACEBEE-110","PAYLOAD","U","21059W","2023-09-18 08:18:35","443584","15.40204389","0.0005773","97.6073","42.0783","288.8444","71.2175","0","999","12373","0.0015264","0.00061671","0","4010084","0 SPACEBEE-110","1 48899U 21059W   23261.34624356  .00061671  00000-0  15264-2 0  9993","2 48899  97.6073  42.0783 0005773 288.8444  71.2175 15.40204389123731","2021-059W","48899","6823.643","93.494","449.447","441.568","0"
"GENERATED VIA SPACETRACK.ORG API","18 SPCS","48899","SPACEBEE-110","PAYLOAD","U","21059W","2023-09-18 20:47:00","675456","15.40274415","0.0005766","97.6073","42.6191","287.8987","72.1629","0","999","12381","0.0017484","0.000709","0","4010122","0 SPACEBEE-110","1 48899U 21059W   23261.86598004  .00070900  00000-0  17484-2 0  9991","2 48899  97.6073  42.6191 0005766 287.8987  72.1629 15.40274415123813","2021-059W","48899","6823.436","93.490","449.235","441.366","0"
"GENERATED VIA SPACETRACK.ORG API","18 SPCS","48899","SPACEBEE-110","PAYLOAD","U","21059W","2023-09-19 09:15:23","386176","15.40363976","0.0005727","97.6072","43.1588","285.2976","74.7637","0","999","12389","0.0014322","0.00058137","0","4010757","0 SPACEBEE-110","1 48899U 21059W   23262.38568734  .00058137  00000-0  14322-2 0  9992","2 48899  97.6072  43.1588 0005727 285.2976  74.7637 15.40363976123891","2021-059W","48899","6823.171","93.484","448.944","441.129","0"
"GENERATED VIA SPACETRACK.ORG API","18 SPCS","48899","SPACEBEE-110","PAYLOAD","U","21059W","2023-09-19 21:43:43","791744","15.40444492","0.00058","97.607","43.6996","284.4171","75.6431","0","999","12397","0.0018428","0.00075194","0","4011374","0 SPACEBEE-110","1 48899U 21059W   23262.90536796  .00075194  00000-0  18428-2 0  9996","2 48899  97.6070  43.6996 0005800 284.4171  75.6431 15.40444492123971","2021-059W","48899","6822.934","93.480","448.756","440.841","0"
